LIME                    
1 62648U 25009AR  26068.73906781  .00013254  00000+0  47723-3 0  9995
2 62648  97.3985 151.4831 0001635  35.9029 324.2320 15.28703313 63766
STARLINK-35887          
1 66959U 25288A   26068.26435370  .00025292  00000+0  92626-3 0  9999
2 66959  43.0020  25.7544 0000996 280.2159  79.8580 15.27551778 15229
